KT-2A R/B               
1 42062U 17012B   17073.98272088  .00270439  19732-5  36125-3 0  9999
2 42062  96.6707  86.9336 0113226 281.4076  77.4491 15.95105622  1907
